NORAD_CAT_ID,OBJECT_NAME,OBJECT_TYPE,EPOCH,MEAN_MOTION,ECCENTRICITY,INCLINATION,RA_OF_ASC_NODE,ARG_OF_PERICENTER,MEAN_ANOMALY,BSTAR,MEAN_MOTION_DOT,MEAN_MOTION_DDOT,TLE_LINE0,TLE_LINE1,TLE_LINE2,SEMIMAJOR_AXIS,PERIOD,APOGEE,PERIGEE,DECAYED
56495.0,STARLINK-5529,PAYLOAD,2023-10-19 20:55:30,15.69915948,0.0004202,69.9984,149.4034,273.1618,86.9097,1.2842e-06,-5.9e-07,0.0,0 STARLINK-5529,1 56495U 23064AZ  23292.87188573 -.00000059  00000-0  12842-5 0  9996,2 56495  69.9984 149.4034 0004202 273.1618  86.9097 15.69915948 25820,6737.274,91.725,361.97,356.308,0.0
56495.0,STARLINK-5529,PAYLOAD,2023-10-19 22:27:16,15.69914258,0.0003103,69.9995,149.2255,273.6799,86.4041,8.289e-06,7.84e-06,0.0,0 STARLINK-5529,1 56495U 23064AZ  23292.93560559  .00000784  00000-0  82890-5 0  9995,2 56495  69.9995 149.2255 0003103 273.6799  86.4041 15.69914258 25488,6737.279,91.725,361.235,357.054,0.0
56495.0,STARLINK-5529,PAYLOAD,2023-10-19 23:59:03,15.69893252,0.0003099,69.9966,149.0462,273.7596,86.3246,-1.1901e-05,-1.641e-05,0.0,0 STARLINK-5529,1 56495U 23064AZ  23292.99934237 -.00001641  00000-0 -11901-4 0  9998,2 56495  69.9966 149.0462 0003099 273.7596  86.3246 15.69893252 25840,6737.339,91.726,361.292,357.117,0.0
56495.0,STARLINK-5529,PAYLOAD,2023-10-20 13:44:48,15.69919421,0.0003161,69.9957,147.4309,276.1911,83.8924,-2.1636e-05,-2.813e-05,0.0,0 STARLINK-5529,1 56495U 23064AZ  23293.57278286 -.00002813  00000-0 -21636-4 0  9996,2 56495  69.9957 147.4309 0003161 276.1911  83.8924 15.69919421 25583,6737.265,91.724,361.259,357.0,0.0
56495.0,STARLINK-5529,PAYLOAD,2023-10-21 00:27:03,15.69914871,0.0003093,69.9996,146.1796,275.0668,85.0174,1.1754e-05,1.2e-05,0.0,0 STARLINK-5529,1 56495U 23064AZ  23294.01879363  .00001200  00000-0  11754-4 0  9996,2 56495  69.9996 146.1796 0003093 275.0668  85.0174 15.69914871 26006,6737.278,91.725,361.226,357.059,0.0
56495.0,STARLINK-5529,PAYLOAD,2023-10-21 14:12:52,15.69887237,0.0003063,69.9988,144.5656,263.9635,96.1212,-1.3106e-05,-1.786e-05,0.0,0 STARLINK-5529,1 56495U 23064AZ  23294.59227323 -.00001786  00000-0 -13106-4 0  9996,2 56495  69.9988 144.5656 0003063 263.9635  96.1212 15.69887237 25742,6737.357,91.726,361.285,357.158,0.0
56495.0,STARLINK-5529,PAYLOAD,2023-10-21 21:51:35,15.69930096,0.0003235,69.997,143.6693,270.3133,89.7692,3.5871e-05,4.103e-05,0.0,0 STARLINK-5529,1 56495U 23064AZ  23294.91082749  .00004103  00000-0  35871-4 0  9990,2 56495  69.9970 143.6693 0003235 270.3133  89.7692 15.69930096 25797,6737.234,91.724,361.278,356.919,0.0
56495.0,STARLINK-5529,PAYLOAD,2023-10-21 23:23:20,15.69931108,0.0003362,69.997,143.4902,270.8276,89.2534,3.6715e-05,4.205e-05,0.0,0 STARLINK-5529,1 56495U 23064AZ  23294.97454319  .00004205  00000-0  36715-4 0  9993,2 56495  69.9970 143.4902 0003362 270.8276  89.2534 15.69931108 26158,6737.231,91.724,361.361,356.831,0.0
56495.0,STARLINK-5529,PAYLOAD,2023-10-22 07:02:10,15.69884491,0.000282,69.9961,142.5943,290.6915,69.3978,-5.6244e-06,-8.87e-06,0.0,0 STARLINK-5529,1 56495U 23064AZ  23295.29317279 -.00000887  00000-0 -56244-5 0  9996,2 56495  69.9961 142.5943 0002820 290.6915  69.3978 15.69884491 26200,6737.364,91.726,361.129,357.33,0.0
56495.0,STARLINK-5529,PAYLOAD,2023-10-22 17:45:10,15.69302842,0.0003962,69.9981,141.3424,295.3333,64.7451,-0.00067648,-0.00078765,0.0,0 STARLINK-5529,1 56495U 23064AZ  23295.73970626 -.00078765  00000-0 -67648-3 0  9994,2 56495  69.9981 141.3424 0003962 295.3333  64.7451 15.69302842 26274,6739.029,91.76,363.564,358.224,0.0
56495.0,STARLINK-5529,PAYLOAD,2023-10-22 23:52:49,15.68918088,0.0002976,69.9977,140.6278,271.6538,88.4316,-0.001058,-0.00120511,0.0,0 STARLINK-5529,1 56495U 23064AZ  23295.99502064 -.00120511  00000-0 -10580-2 0  9998,2 56495  69.9977 140.6278 0002976 271.6538  88.4316 15.68918088 26318,6740.131,91.783,364.002,359.99,0.0
56495.0,STARLINK-5529,PAYLOAD,2023-10-23 14:00:01,15.66997699,0.0003505,69.9996,138.9765,269.5647,172.3854,-0.009355,-0.00910401,0.0,0 STARLINK-5529,1 56495U 23064AZ  23296.58335648 -.00910401  00000-0 -93550-2 0  9999,2 56495  69.9996 138.9765 0003505 269.5647 172.3854 15.66997699 26410,6745.637,91.895,369.866,365.137,0.0
56495.0,STARLINK-5529,PAYLOAD,2023-10-23 22:00:00,15.66326743,0.0003425,69.9996,138.0438,274.9756,246.3451,-0.0094379,-0.00895202,0.0,0 STARLINK-5529,1 56495U 23064AZ  23296.91667824 -.00895202  00000-0 -94379-2 0  9991,2 56495  69.9996 138.0438 0003425 274.9756 246.3451 15.66326743  6048,6747.563,91.935,371.739,367.117,0.0
56495.0,STARLINK-5529,PAYLOAD,2023-10-24 06:00:02,15.65698379,0.0003363,69.9993,137.1121,271.0102,329.0086,-0.010291,-0.00946611,0.0,0 STARLINK-5529,1 56495U 23064AZ  23297.25002315 -.00946611  00000-0 -10291-1 0  9998,2 56495  69.9993 137.1121 0003363 271.0102 329.0086 15.65698379 26511,6749.368,91.972,373.503,368.963,0.0
56495.0,STARLINK-5529,PAYLOAD,2023-10-24 14:00:01,15.650442,0.0003624,69.9995,136.1815,267.6844,50.1175,-0.010202,-0.00917056,0.0,0 STARLINK-5529,1 56495U 23064AZ  23297.58334491 -.00917056  00000-0 -10202-1 0  9990,2 56495  69.9995 136.1815 0003624 267.6844  50.1175 15.65044200  5871,6751.249,92.01,375.56,370.667,0.0
56495.0,STARLINK-5529,PAYLOAD,2023-10-24 16:00:01,15.64894697,0.0003587,69.9993,135.9487,271.1615,156.0466,-0.010612,-0.00945412,0.0,0 STARLINK-5529,1 56495U 23064AZ  23297.66668981 -.00945412  00000-0 -10612-1 0  9995,2 56495  69.9993 135.9487 0003587 271.1615 156.0466 15.64894697  5898,6751.679,92.019,375.965,371.122,0.0
56495.0,STARLINK-5529,PAYLOAD,2023-10-25 14:00:01,15.63082115,0.0003353,69.999,133.394,268.5758,278.1029,-0.010889,-0.00906443,0.0,0 STARLINK-5529,1 56495U 23064AZ  23298.58334491 -.00906443  00000-0 -10889-1 0  9990,2 56495  69.9990 133.3940 0003353 268.5758 278.1029 15.63082115  6031,6756.897,92.126,381.028,376.497,0.0
56495.0,STARLINK-5529,PAYLOAD,2023-10-26 06:00:00,15.61772488,0.000353,69.9984,131.5401,271.2548,64.1092,-0.011784,-0.00929745,0.0,0 STARLINK-5529,1 56495U 23064AZ  23299.25001157 -.00929745  00000-0 -11784-1 0  9990,2 56495  69.9984 131.5401 0003530 271.2548  64.1092 15.61772488 26820,6760.674,92.203,384.926,380.153,0.0
56495.0,STARLINK-5529,PAYLOAD,2023-10-26 14:00:01,15.6113535,0.0003535,69.9984,130.6147,271.0458,137.4656,-0.011979,-0.0092273,0.0,0 STARLINK-5529,1 56495U 23064AZ  23299.58334491 -.00922730  00000-0 -11979-1 0  9999,2 56495  69.9984 130.6147 0003535 271.0458 137.4656 15.61135350  5828,6762.513,92.241,386.769,381.988,0.0
56495.0,STARLINK-5529,PAYLOAD,2023-10-26 16:00:00,15.60985267,0.000342,69.9983,130.3835,271.8941,244.786,-0.012474,-0.00952265,0.0,0 STARLINK-5529,1 56495U 23064AZ  23299.66667824 -.00952265  00000-0 -12474-1 0  9994,2 56495  69.9983 130.3835 0003420 271.8941 244.7860 15.60985267 26894,6762.947,92.249,387.125,382.499,0.0
56495.0,STARLINK-5529,PAYLOAD,2023-10-30 05:39:09,15.56130342,0.0005345,69.9967,120.5343,291.1504,68.9113,-0.0033162,-0.0022655,0.0,0 STARLINK-5529,1 56495U 23064AZ  23303.23553104 -.00226550  00000-0 -33162-2 0  9997,2 56495  69.9967 120.5343 0005345 291.1504  68.9113 15.56130342 27449,6777.006,92.537,402.493,395.249,0.0
56495.0,STARLINK-5529,PAYLOAD,2023-10-30 22:00:00,15.52618005,0.0003417,69.9982,118.6647,279.3667,289.0954,-0.015523,-0.00873833,0.0,0 STARLINK-5529,1 56495U 23064AZ  23303.91667824 -.00873833  00000-0 -15523-1 0  9999,2 56495  69.9982 118.6647 0003417 279.3667 289.0954 15.52618005 27551,6787.223,92.747,411.407,406.768,0.0
56495.0,STARLINK-5529,PAYLOAD,2023-10-31 14:00:01,15.51357242,0.0003592,69.9983,116.84,274.2424,57.8412,-0.017554,-0.00951031,0.0,0 STARLINK-5529,1 56495U 23064AZ  23304.58334491 -.00951031  00000-0 -17554-1 0  9997,2 56495  69.9983 116.8400 0003592 274.2424  57.8412 15.51357242 27651,6790.899,92.822,415.204,410.325,0.0
56495.0,STARLINK-5529,PAYLOAD,2023-10-31 22:00:01,15.50666992,0.0003613,69.9981,115.9289,282.0001,110.8107,-0.016785,-0.00880322,0.0,0 STARLINK-5529,1 56495U 23064AZ  23304.91668981 -.00880322  00000-0 -16785-1 0  9997,2 56495  69.9981 115.9289 0003613 282.0001 110.8107 15.50666992  6096,6792.914,92.863,417.234,412.325,0.0
56495.0,STARLINK-5529,PAYLOAD,2023-11-01 14:00:01,15.4939622,0.0003361,69.9989,114.1097,274.6528,237.0879,-0.018638,-0.00942363,0.0,0 STARLINK-5529,1 56495U 23064AZ  23305.58335648 -.00942363  00000-0 -18638-1 0  9995,2 56495  69.9989 114.1097 0003361 274.6528 237.0879 15.49396220 27816,6796.628,92.939,420.778,416.209,0.0
56495.0,STARLINK-5529,PAYLOAD,2023-11-01 22:00:00,15.48708026,0.0003417,69.9986,113.2012,277.637,292.3551,-0.017951,-0.00878455,0.0,0 STARLINK-5529,1 56495U 23064AZ  23305.91667824 -.00878455  00000-0 -17951-1 0  9993,2 56495  69.9986 113.2012 0003417 277.6370 292.3551 15.48708026  5772,6798.642,92.981,422.83,418.183,0.0
56495.0,STARLINK-5529,PAYLOAD,2023-11-02 14:00:01,15.47447263,0.0003501,69.999,111.387,271.6483,52.5783,-0.020279,-0.00956369,0.0,0 STARLINK-5529,1 56495U 23064AZ  23306.58334491 -.00956369  00000-0 -20279-1 0  9996,2 56495  69.9990 111.3870 0003501 271.6483  52.5783 15.47447263  5877,6802.334,93.056,426.58,421.817,0.0
56495.0,STARLINK-5529,PAYLOAD,2023-11-02 22:00:01,15.46751858,0.0003549,69.9988,110.4811,278.9531,101.3083,-0.019218,-0.00890141,0.0,0 STARLINK-5529,1 56495U 23064AZ  23306.91668981 -.00890141  00000-0 -19218-1 0  9993,2 56495  69.9988 110.4811 0003549 278.9531 101.3083 15.46751858 28020,6804.372,93.098,428.652,423.823,0.0
56495.0,STARLINK-5529,PAYLOAD,2023-11-03 14:00:01,15.45492492,0.0003372,69.9989,108.6725,275.3963,214.3421,-0.021869,-0.00963242,0.0,0 STARLINK-5529,1 56495U 23064AZ  23307.58334491 -.00963242  00000-0 -21869-1 0  9991,2 56495  69.9989 108.6725 0003372 275.3963 214.3421 15.45492492 28125,6808.068,93.174,432.229,427.638,0.0
56495.0,STARLINK-5529,PAYLOAD,2023-11-03 22:00:00,15.44798085,0.0003297,69.9986,107.7695,280.1289,263.2308,-0.020651,-0.00893927,0.0,0 STARLINK-5529,1 56495U 23064AZ  23307.91667824 -.00893927  00000-0 -20651-1 0  9997,2 56495  69.9986 107.7695 0003297 280.1289 263.2308 15.44798085  5992,6810.108,93.216,434.219,429.728,0.0
